ONEWEB-0572             
1 55151U 23004M   26169.27869772 -.00000089  00000+0 -26190-3 0  9997
2 55151  87.9130   5.6483 0001994  94.2619 265.8740 13.17648341167629
ONEWEB-0573             
1 55152U 23004N   26169.02549061  .00000033  00000+0  51673-4 0  9999
2 55152  87.9162 335.3022 0002292 115.8585 244.2784 13.18686121169801
ONEWEB-0588             
1 55153U 23004P   26169.01874832 -.00000115  00000+0 -32415-3 0  9991
2 55153  87.9160 335.3041 0002385  96.3064 263.8340 13.18684086169802
ONEWEB-0598             
1 55154U 23004Q   26169.07580808 -.00000458  00000+0 -13280-2 0  9993
2 55154  87.8882  20.8920 0001732 109.2588 250.8728 13.11415561166014
ONEWEB-0599             
1 55155U 23004R   26169.08801547 -.00000018  00000+0 -79591-4 0  9992
2 55155  87.9133   5.6847 0001625  90.2104 269.9214 13.17649063167607
ONEWEB-0614             
1 55156U 23004S   26169.07072042 -.00000419  00000+0 -12194-2 0  9991
2 55156  87.8884  20.9014 0002007  82.1411 277.9945 13.11414703165953
ONEWEB-0616             
1 55157U 23004T   26169.28207974 -.00000144  00000+0 -40305-3 0  9990
2 55157  87.9132   5.6498 0000964  80.8516 279.2725 13.17647988167848
ONEWEB-0617             
1 55158U 23004U   26168.98257030  .00000008  00000+0 -13782-4 0  9993
2 55158  87.8890  20.9101 0002235  84.6048 275.5335 13.11413919165961
ONEWEB-0618             
1 55159U 23004V   26169.05066305  .00002904  00000+0  16193-3 0  9990
2 55159  86.9089 177.2841 0009597 296.0989  63.9263 15.13141595182397
ONEWEB-0619             
1 55160U 23004W   26169.08633381 -.00000064  00000+0 -19828-3 0  9994
2 55160  87.9142   5.6694 0001926  75.6448 284.4898 13.17649298167717
ONEWEB-0620             
1 55161U 23004X   26169.13006730  .00000201  00000+0  53143-3 0  9992
2 55161  87.8882  20.8894 0001903  93.9823 266.1523 13.11413588165955
ONEWEB-0621             
1 55162U 23004Y   26169.08089218 -.00000448  00000+0 -12994-2 0  9992
2 55162  87.8892  20.8885 0002003  81.3899 278.7456 13.11416411165922
ONEWEB-0622             
1 55163U 23004Z   26169.08598332 -.00000484  00000+0 -14002-2 0  9997
2 55163  87.8894  20.8896 0002547  87.7033 272.4387 13.11418069165914
ONEWEB-0623             
1 55164U 23004AA  26169.08126124  .00000051  00000+0  98886-4 0  9996
2 55164  87.9130   5.7007 0002504  76.7551 283.3860 13.17650144167705
ONEWEB-0624             
1 55165U 23004AB  26169.03319920  .00002957  00000+0  81242-2 0  9993
2 55165  87.8943 350.4166 0002115  86.6140 273.5231 13.12915681168186
ONEWEB-0625             
1 55166U 23004AC  26169.07114598  .00000030  00000+0  43739-4 0  9993
2 55166  87.9131   5.6984 0001700  85.6717 274.4608 13.17649415167699
ONEWEB-0626             
1 55167U 23004AD  26169.06102272  .00000003  00000+0 -26432-4 0  9991
2 55167  87.9130   5.7001 0001911 101.5436 258.5911 13.17649521167698
ONEWEB-0627             
1 55168U 23004AE  26169.27701079 -.00000026  00000+0 -99814-4 0  9995
2 55168  87.9131   5.6576 0002288  80.2003 279.9387 13.17648015167722
ONEWEB-0628             
1 55169U 23004AF  26169.01491877  .00000071  00000+0  16257-3 0  9997
2 55169  87.8947 350.4882 0002335  77.1809 282.9580 13.12445616168143
ONEWEB-0629             
1 55170U 23004AG  26169.10066448  .00000032  00000+0  49521-4 0  9999
2 55170  87.9132   5.6884 0001861  76.3682 283.7657 13.17647813167709
ONEWEB-0631             
1 55171U 23004AH  26169.01200181  .00000023  00000+0  26067-4 0  9994
2 55171  87.9170 335.2711 0002265 101.7831 258.3555 13.18685487169786
ONEWEB-0709             
1 55172U 23004AJ  26169.11990750  .00000668  00000+0  18501-2 0  9991
2 55172  87.8883  20.8936 0001811 114.0081 246.1236 13.11416700165996
ONEWEB-0710             
1 55173U 23004AK  26169.03907609  .00000061  00000+0  12487-3 0  9999
2 55173  87.9131   5.6964 0002016  87.1178 273.0184 13.17649729167696
ONEWEB-0711             
1 55174U 23004AL  26169.09107466 -.00000225  00000+0 -67057-3 0  9996
2 55174  87.8885  20.8868 0002526  80.5535 279.5879 13.11420377165953
ONEWEB-0713             
1 55175U 23004AM  26169.10974036  .00000558  00000+0  15392-2 0  9995
2 55175  87.8887  20.8846 0002196  82.8294 277.3084 13.11417312165940
ONEWEB-0715             
1 55176U 23004AN  26169.10464114  .00000418  00000+0  11428-2 0  9998
2 55176  87.8886  20.8863 0002111 104.4698 255.6664 13.11419784165987
ONEWEB-0716             
1 55177U 23004AP  26169.10826241 -.00000047  00000+0 -15412-3 0  9990
2 55177  87.9131   5.6852 0001639  86.1445 273.9874 13.17649861167706
ONEWEB-0717             
1 55178U 23004AQ  26169.09139185  .00000031  00000+0  46080-4 0  9990
2 55178  87.9143   5.6759 0002431  88.7357 271.4053 13.17649296167756
ONEWEB-0719             
1 55179U 23004AR  26169.10152114  .00000012  00000+0 -34829-5 0  9999
2 55179  87.9141   5.6543 0001748  82.5506 277.5824 13.17649131167700
ONEWEB-0530             
1 55796U 23029A   26169.22628792  .00000073  00000+0  14868-3 0  9999
2 55796  87.9184 274.2617 0002299  90.8994 269.2402 13.20771784161284
