OBJECT_NAME,OBJECT_ID,EPOCH,MEAN_MOTION,ECCENTRICITY,INCLINATION,RA_OF_ASC_NODE,ARG_OF_PERICENTER,MEAN_ANOMALY,EPHEMERIS_TYPE,CLASSIFICATION_TYPE,NORAD_CAT_ID,ELEMENT_SET_NO,REV_AT_EPOCH,BSTAR,MEAN_MOTION_DOT,MEAN_MOTION_DDOT
ONEWEB-0572,2023-004M,2026-06-18T06:41:19.483008,13.17648341,.00019942,87.9130,5.6483,94.2619,265.8740,0,U,55151,999,16762,-.2619001E-3,-.89E-6,0
ONEWEB-0573,2023-004N,2026-06-18T00:36:42.388704,13.18686121,.00022923,87.9162,335.3022,115.8585,244.2784,0,U,55152,999,16980,.51672856E-4,.33E-6,0
ONEWEB-0588,2023-004P,2026-06-18T00:26:59.854848,13.18684086,.00023856,87.9160,335.3041,96.3064,263.8340,0,U,55153,999,16980,-.32414571E-3,-.115E-5,0
ONEWEB-0598,2023-004Q,2026-06-18T01:49:09.818112,13.11415561,.00017324,87.8882,20.8920,109.2588,250.8728,0,U,55154,999,16601,-.13279605E-2,-.458E-5,0
ONEWEB-0599,2023-004R,2026-06-18T02:06:44.536608,13.17649063,.00016252,87.9133,5.6847,90.2104,269.9214,0,U,55155,999,16760,-.79590823E-4,-.18E-6,0
ONEWEB-0614,2023-004S,2026-06-18T01:41:50.244288,13.11414703,.00020077,87.8884,20.9014,82.1411,277.9945,0,U,55156,999,16595,-.12194485E-2,-.419E-5,0
ONEWEB-0616,2023-004T,2026-06-18T06:46:11.689536,13.17647988,.00009648,87.9132,5.6498,80.8516,279.2725,0,U,55157,999,16784,-.4030482E-3,-.144E-5,0
ONEWEB-0617,2023-004U,2026-06-17T23:34:54.073920,13.11413919,.00022351,87.8890,20.9101,84.6048,275.5335,0,U,55158,999,16596,-.13781888E-4,.8E-7,0
ONEWEB-0618,2023-004V,2026-06-18T01:12:57.287520,15.13141595,.00095977,86.9089,177.2841,296.0989,63.9263,0,U,55159,999,18239,.16193129E-3,.2904E-4,0
ONEWEB-0619,2023-004W,2026-06-18T02:04:19.241184,13.17649298,.0001926,87.9142,5.6694,75.6448,284.4898,0,U,55160,999,16771,-.19828024E-3,-.64E-6,0
ONEWEB-0620,2023-004X,2026-06-18T03:07:17.814720,13.11413588,.00019034,87.8882,20.8894,93.9823,266.1523,0,U,55161,999,16595,.53143301E-3,.201E-5,0
ONEWEB-0621,2023-004Y,2026-06-18T01:56:29.084352,13.11416411,.00020032,87.8892,20.8885,81.3899,278.7456,0,U,55162,999,16592,-.12993814E-2,-.448E-5,0
ONEWEB-0622,2023-004Z,2026-06-18T02:03:48.958848,13.11418069,.00025474,87.8894,20.8896,87.7033,272.4387,0,U,55163,999,16591,-.14002485E-2,-.484E-5,0
ONEWEB-0623,2023-004AA,2026-06-18T01:57:00.971136,13.17650144,.00025046,87.9130,5.7007,76.7551,283.3860,0,U,55164,999,16770,.98885958E-4,.51E-6,0
ONEWEB-0624,2023-004AB,2026-06-18T00:47:48.410880,13.12915681,.00021157,87.8943,350.4166,86.6140,273.5231,0,U,55165,999,16818,.81242243E-2,.2957E-4,0
ONEWEB-0625,2023-004AC,2026-06-18T01:42:27.012672,13.17649415,.00017005,87.9131,5.6984,85.6717,274.4608,0,U,55166,999,16769,.43738988E-4,.3E-6,0
ONEWEB-0626,2023-004AD,2026-06-18T01:27:52.363008,13.17649521,.00019112,87.9130,5.7001,101.5436,258.5911,0,U,55167,999,16769,-.26432486E-4,.3E-7,0
ONEWEB-0627,2023-004AE,2026-06-18T06:38:53.732256,13.17648015,.00022886,87.9131,5.6576,80.2003,279.9387,0,U,55168,999,16772,-.99813801E-4,-.26E-6,0
ONEWEB-0628,2023-004AF,2026-06-18T00:21:28.981728,13.12445616,.00023354,87.8947,350.4882,77.1809,282.9580,0,U,55169,999,16814,.16257E-3,.71E-6,0
ONEWEB-0629,2023-004AG,2026-06-18T02:24:57.411072,13.17647813,.00018614,87.9132,5.6884,76.3682,283.7657,0,U,55170,999,16770,.49521448E-4,.32E-6,0
ONEWEB-0631,2023-004AH,2026-06-18T00:17:16.956384,13.18685487,.00022657,87.9170,335.2711,101.7831,258.3555,0,U,55171,999,16978,.26066976E-4,.23E-6,0
ONEWEB-0709,2023-004AJ,2026-06-18T02:52:40.008000,13.11416700,.00018117,87.8883,20.8936,114.0081,246.1236,0,U,55172,999,16599,.18501299E-2,.668E-5,0
ONEWEB-0710,2023-004AK,2026-06-18T00:56:16.174176,13.17649729,.00020161,87.9131,5.6964,87.1178,273.0184,0,U,55173,999,16769,.12486793E-3,.61E-6,0
ONEWEB-0711,2023-004AL,2026-06-18T02:11:08.850624,13.11420377,.00025264,87.8885,20.8868,80.5535,279.5879,0,U,55174,999,16595,-.67057369E-3,-.225E-5,0
ONEWEB-0713,2023-004AM,2026-06-18T02:38:01.567104,13.11417312,.00021963,87.8887,20.8846,82.8294,277.3084,0,U,55175,999,16594,.15392358E-2,.558E-5,0
ONEWEB-0715,2023-004AN,2026-06-18T02:30:40.994496,13.11419784,.00021119,87.8886,20.8863,104.4698,255.6664,0,U,55176,999,16598,.11427757E-2,.418E-5,0
ONEWEB-0716,2023-004AP,2026-06-18T02:35:53.872224,13.17649861,.00016391,87.9131,5.6852,86.1445,273.9874,0,U,55177,999,16770,-.15411646E-3,-.47E-6,0
ONEWEB-0717,2023-004AQ,2026-06-18T02:11:36.255840,13.17649296,.0002431,87.9143,5.6759,88.7357,271.4053,0,U,55178,999,16775,.46079949E-4,.31E-6,0
ONEWEB-0719,2023-004AR,2026-06-18T02:26:11.426496,13.17649131,.00017487,87.9141,5.6543,82.5506,277.5824,0,U,55179,999,16770,-.3482911E-5,.12E-6,0
ONEWEB-0530,2023-029A,2026-06-18T05:25:51.276288,13.20771784,.00022995,87.9184,274.2617,90.8994,269.2402,0,U,55796,999,16128,.14867685E-3,.73E-6,0
